C/2020 M3 (ATLAS),e,23.4712,71.1726,328.5951,27.22053,0.0069400,0.95332478,8.9595,05/09.0/2024,2000,g 14.5,4.0
# From MPEC 2023-N01
A/2020 M4,h,11/23.7722/2020,160.1170,348.6230,104.5748,1.000796,5.946453,2000,14.5,2.0
# From MPC xxxxx
P/2020 MK4 (PANSTARRS),e,6.7868,0.6962,94.3052,6.217669,0.0635715,0.01353316,290.8637,05/09.0/2024,2000,g  8.0,4.0
# From MPEC 2023-FK0
C/2020 M5 (ATLAS),h,08/19.8582/2021,93.2012,352.0687,126.2657,1.000282,3.000683,2000,9.0,4.0
# From MPEC 2022-GA9
C/2020 N1 (PANSTARRS),h,03/12.6907/2021,29.7435,279.8849,186.7846,1.000626,1.317092,2000,12.5,4.0
# From MPEC 2021-P47
C/2020 N2 (ATLAS),e,161.0392,257.1737,331.2874,102.8272,0.0009452,0.98259635,0.0000,08/24.1807/2020,2000,g 16.0,3.2
# From MPEC 2023-XP6
C/2020 O2 (Amaral),h,08/28.0369/2021,71.7621,256.7895,10.2555,1.000681,4.860868,2000,8.0,3.2
# From MPEC 2023-C45
P/2020 O3 (PANSTARRS),e,8.4446,266.8187,81.4908,4.646877,0.0983926,0.10266374,117.7418,05/09.0/2024,2000,g 12.0,4.0
# From MPEC 2021-BE3
C/2020 P1 (NEOWISE),h,10/20.8179/2020,45.1700,53.4752,8.9027,1.000377,0.340719,2000,14.0,3.2
# From MPEC 2024-JC2
C/2020 P3 (ATLAS),h,04/22.1093/2021,61.8822,19.4713,82.3073,1.002756,6.813485,2000,6.0,4.0
# From MPEC 2022-PB4
C/2020 PV6 (PANSTARRS),e,128.1963,329.1446,71.3425,41.96938,0.0036250,0.94536415,3.4650,05/09.0/2024,2000,g 10.0,4.0
# From MPEC 2022-L66
C/2020 Q1 (Borisov),e,142.9448,52.3957,9.9859,61.70796,0.0020333,0.97862923,0.0000,08/14.7484/2020,2000,g 14.0,4.0
# From MPEC 2023-CD7
C/2020 Q2 (PANSTARRS),e,3.3354,179.8188,118.2874,10.62147,0.0284726,0.49003015,44.5172,05/09.0/2024,2000,g 12.0,3.2
# From MPEC 2024-F34
C/2020 R2 (PANSTARRS),e,53.2268,195.1010,211.8445,425.2497,0.0001124,0.98895857,0.0000,02/25.2406/2022,2000,g  9.0,4.0
# From MPEC 2022-K19
C/2020 R4 (ATLAS),e,164.4310,323.2590,46.6112,99.09564,0.0009991,0.98966738,0.0000,03/02.3703/2021,2000,g 13.5,4.0
# From MPEC 2023-C45
P/2020 R5 (PANSTARRS),e,11.4408,272.9504,82.7315,4.990578,0.0884052,0.31390567,127.3798,05/09.0/2024,2000,g  9.5,6.0
# From MPEC 2021-Y10
C/2020 R6 (Rankin),e,82.8342,12.1921,272.0001,299.7711,0.0001899,0.98953427,0.0000,09/07.5974/2019,2000,g 11.0,4.0
# From MPEC 2024-JC2
C/2020 R7 (ATLAS),h,09/16.2030/2022,114.9026,268.2995,347.8241,1.000141,2.955045,2000,7.0,3.2
# From MPEC 2021-BE3
P/2020 S1 (PANSTARRS),e,13.7214,129.5124,255.0696,5.998041,0.0670950,0.50750332,81.0099,05/09.0/2024,2000,g 14.0,4.0
# From MPEC 2022-ST7
C/2020 S2 (PANSTARRS),e,22.3988,197.6972,202.3670,10.23912,0.0300822,0.82818111,37.1118,05/09.0/2024,2000,g 17.0,4.0
# From MPEC 2024-JC2
C/2020 S3 (Erasmus),e,20.0232,222.5878,350.0610,145.3113,0.0005627,0.99728002,0.0000,12/11.5779/2020,2000,g 13.5,3.2
# From MPEC 2024-JC2
C/2020 S4 (PANSTARRS),h,02/09.2999/2023,20.5676,117.7043,21.0086,1.002019,3.369767,2000,8.5,3.2
# From MPEC 2021-BE3
P/2020 S5 (PANSTARRS),e,12.3440,316.0485,53.2438,4.056378,0.1206414,0.33801252,165.1578,05/09.0/2024,2000,g 14.5,4.0
# From MPEC 2021-BE3
P/2020 S7 (PANSTARRS),e,16.0803,328.0928,40.6137,5.034043,0.0872627,0.41023751,110.5939,05/09.0/2024,2000,g 14.5,4.0
# From MPEC 2021-P47
C/2020 S8 (Lemmon),e,108.5293,24.0580,160.2028,250.0184,0.0002493,0.99056744,0.0000,04/10.6693/2021,2000,g 12.5,4.0
# From MPEC 2022-TD3
C/2020 T2 (Palomar),e,27.8376,83.0581,150.4195,287.0245,0.0002027,0.99283170,0.0000,07/10.6787/2021,2000,g 11.0,3.2
# From MPEC 2021-N06
P/2020 T3 (PANSTARRS),e,7.2989,73.9932,357.0506,3.516580,0.1494594,0.59240195,179.8880,05/09.0/2024,2000,g 18.0,3.2
# From MPEC 2021-N06
C/2020 T4 (PANSTARRS),h,07/05.5844/2021,83.8531,50.6200,79.5879,1.000414,2.190095,2000,13.0,3.2
# From MPEC 2021-BE3
C/2020 T5 (Lemmon),e,66.5442,237.8282,90.3651,672.3213,0.0000565,0.99718252,0.0000,10/08.7182/2020,2000,g 16.0,4.0
# From MPEC 2021-N06
P/2020 U2 (PANSTARRS),e,6.4198,342.8658,84.6878,3.777952,0.1342207,0.51137737,165.0022,05/09.0/2024,2000,g 18.0,4.0
# From MPEC 2021-W31
C/2020 U3 (Rankin),e,30.1447,282.6393,124.3993,67.24128,0.0017875,0.96609280,2.1230,05/09.0/2024,2000,g 15.0,4.0
# From MPEC 2023-W26
C/2020 U4 (PANSTARRS),h,04/09.6021/2022,167.0160,120.3632,70.0987,1.000579,5.360416,2000,7.0,4.0
# From MPEC 2024-GJ3
C/2020 U5 (PANSTARRS),e,97.2912,107.3167,75.4497,4322,0.0000035,0.99913083,0.0000,04/28.0549/2022,2000,g  8.0,4.0
# From MPEC 2024-JC2
C/2020 V2 (ZTF),h,05/08.4619/2023,131.6121,212.3724,162.3991,1.000804,2.227779,2000,4.9,4.0
# From MPEC 2023-D72
P/2020 V3 (PANSTARRS),e,23.0307,198.2575,249.5563,8.397115,0.0405050,0.25765180,47.8670,05/09.0/2024,2000,g  8.3,4.0
# From MPEC 2024-F34
P/2020 V4 (Rankin),e,14.2433,203.4847,257.1162,9.383141,0.0342911,0.45117288,35.1380,05/09.0/2024,2000,g  9.0,4.0
# From MPEC 2021-BE3
P/2020 W1 (Rankin),e,10.7812,124.3937,265.2429,7.221444,0.0507888,0.26614503,75.6585,05/09.0/2024,2000,g 10.0,4.0
# From MPEC 2021-BE3
C/2020 W5 (Lemmon),h,11/30.4744/2020,88.6134,75.4697,24.5364,1.001520,3.367045,2000,15.0,4.0
# From MPEC 2024-JC2
P/2020 WJ5 (Lemmon),e,22.2899,177.7950,338.0655,6.015299,0.0668064,0.17170185,69.7475,05/09.0/2024,2000,g  8.5,4.0
# From MPEC 2024-F34
P/2020 X1 (ATLAS),e,31.6961,55.9802,323.4915,4.533573,0.1021041,0.36510969,141.7461,05/09.0/2024,2000,g 13.0,4.0
# From MPEC 2024-A43
C/2020 X2 (ATLAS),e,18.1848,105.3837,347.4555,16.49574,0.0147111,0.76794383,18.6736,05/09.0/2024,2000,g 10.6,4.0
# From MPEC 2021-S45
C/2020 X4 (Leonard),e,80.6329,161.9169,140.3179,40.72236,0.0037928,0.87170584,4.8173,05/09.0/2024,2000,g  9.0,4.0
# From MPEC 2024-C04
C/2020 Y2 (ATLAS),e,101.1907,26.5336,266.4173,1884,0.0000121,0.99833106,0.0000,06/18.2833/2022,2000,g  6.5,4.0
# From MPEC 2021-R75
C/2020 Y3 (ATLAS),e,83.1107,191.4144,341.8881,139.3135,0.0005994,0.98569452,0.0000,12/03.2530/2020,2000,g 13.5,4.0
# From MPEC 2023-CD7
C/2021 A1 (Leonard),h,01/03.3976/2022,132.7492,255.9098,225.1430,1.000122,0.616170,2000,8.5,4.0
# From MPEC 2022-F14
C/2021 A2 (NEOWISE),e,107.0160,125.1327,338.7683,228.4684,0.0002854,0.99381601,0.0000,01/22.1901/2021,2000,g 13.5,4.0
# From MPEC 2022-ED3
C/2021 A4 (NEOWISE),e,111.5751,307.1019,204.7241,42.38329,0.0035720,0.97289730,0.0000,03/19.5368/2021,2000,g 16.0,4.0
# From MPEC 2021-BE3
P/2021 A5 (PANSTARRS),e,18.1857,328.8217,61.3945,3.047405,0.1852716,0.13992323,235.7379,05/09.0/2024,2000,g 15.0,4.0
# From MPEC 2023-O39
C/2021 A6 (PANSTARRS),e,75.5848,164.0575,351.6100,8938,0.0000012,0.99911344,0.0000,05/02.8839/2021,2000,g  7.0,4.0
# From MPEC 2022-M88
C/2021 A7 (NEOWISE),e,78.1742,154.4637,355.9850,1842,0.0000125,0.99893344,0.0000,07/15.1305/2021,2000,g 10.0,4.0
# From MPEC 2024-GJ3
C/2021 A9 (PANSTARRS),h,12/02.3156/2023,158.0127,314.8331,211.4973,1.001042,7.760223,2000,6.0,4.0
# From MPEC 2021-N06
C/2021 A10 (NEOWISE),e,151.9572,188.7567,82.5189,89.43203,0.0011654,0.98587106,0.0000,03/14.9995/2021,2000,g 19.0,4.0
# From MPEC 2022-L66
C/2021 B2 (PANSTARRS),e,38.0824,120.4900,335.0188,382.6821,0.0001317,0.99343604,0.0000,05/04.6234/2021,2000,g 14.0,4.0
# From MPEC 2021-N06
C/2021 B3 (NEOWISE),e,119.4744,67.2731,293.5410,34.26744,0.0049134,0.93687714,5.6799,05/09.0/2024,2000,g 13.5,4.0
# From MPEC 2023-KD6
C/2021 C1 (Rankin),e,143.0430,186.8755,336.1474,3170,0.0000055,0.99890393,0.0000,12/06.5402/2020,2000,g 11.5,4.0
# From MPEC 2021-U31
P/2021 C2 (PANSTARRS),e,21.9405,66.4562,78.6959,9.537711,0.0334609,0.48781950,39.1583,05/09.0/2024,2000,g 12.0,4.0
# From MPEC 2021-N06
C/2021 C3 (Catalina),e,122.1749,181.9046,357.0175,60.98738,0.0020694,0.96272485,2.4466,05/09.0/2024,2000,g 14.0,4.0
# From MPEC 2022-M88
C/2021 C4 (ATLAS),e,132.8464,194.2654,320.1198,10573,0.0000009,0.99957465,0.0000,01/16.7549/2021,2000,g  9.0,4.0
# From MPEC 2023-R20
C/2021 C5 (PANSTARRS),e,50.7901,323.6738,270.9164,1810,0.0000128,0.99820854,0.0000,02/11.0060/2023,2000,g  9.0,4.0
# From MPEC 2022-YB4
C/2021 C6 (Lemmon),e,164.6041,332.3467,203.8208,3798,0.0000042,0.99913663,0.0000,11/12.4410/2021,2000,g 12.0,4.0
# From MPEC 2022-F14
C/2021 D1 (SWAN),e,31.4008,311.2401,72.3263,101.5736,0.0009628,0.99109557,0.0000,02/27.7266/2021,2000,g 13.0,4.0
# From MPEC 2023-J29
C/2021 D2 (ZTF),h,02/03.9165/2022,83.7927,305.6586,125.0332,1.001578,2.946741,2000,9.0,4.0
# From MPEC 2022-UY9
A/2021 E2,e,167.4896,190.7988,342.3039,212.2524,0.0003187,0.98924492,0.0000,12/09.9410/2020,2000,g 15.0,2.0
# From MPEC 2024-GJ3
C/2021 E3 (ZTF),h,06/11.7605/2022,112.5321,104.4830,228.8315,1.000503,1.777122,2000,8.5,4.0
# From MPEC 2023-SQ0
A/2021 E4,e,116.3636,171.1628,48.2666,529.4862,0.0000809,0.99116662,0.0000,04/25.0036/2022,2000,g 13.5,22.0
# From MPEC 2022-QD9
C/2021 F1 (Lemmon-PANSTARRS),e,107.3155,203.4795,146.8831,242.8510,0.0002604,0.99589255,0.0000,04/06.7774/2022,2000,g 13.5,4.0
# From MPEC 2021-J72
C/2021 G1 (Leonard),e,131.5491,270.6999,107.4401,72.40858,0.0015996,0.95270103,1.6359,05/09.0/2024,2000,g 14.0,4.0
# From MPEC 2024-JC2
C/2021 G2 (ATLAS),h,09/09.2803/2024,48.4744,221.0943,343.2872,1.000020,4.982337,2000,5.5,4.0
# From MPEC 2022-X67
C/2021 G3 (PANSTARRS),e,102.8695,147.3820,10.5808,11621,0.0000008,0.99955423,0.0000,10/17.9032/2021,2000,g 10.5,4.0
# From MPEC 2021-Y10
P/2021 HS (PANSTARRS),e,12.1562,262.3646,46.1400,4.194340,0.1147384,0.80953546,115.5648,05/09.0/2024,2000,g 22.0,4.0
# From MPEC 2022-C56
C/2021 J1 (Maury-Attard),e,92.7135,88.4103,147.2775,26.30276,0.0073064,0.93390567,8.5823,05/09.0/2024,2000,g 15.5,4.0
# From MPEC 2023-XP6
C/2021 J2 (PANSTARRS),e,156.2125,23.3303,171.9529,115.0992,0.0007982,0.95914479,0.7665,05/09.0/2024,2000,g 12.0,4.0
# From MPEC 2024-F34
P/2021 J3 (ATLAS),e,14.5237,111.0983,125.8371,8.912129,0.0370452,0.44900943,65.6812,05/09.0/2024,2000,g  7.0,4.0
# From MPEC 2022-O08
C/2021 K1 (ATLAS),e,16.2736,140.9154,184.2660,12.64291,0.0219247,0.80222051,24.1470,05/09.0/2024,2000,g 11.0,4.0
# From MPEC 2022-O01
C/2021 K2 (MASTER),h,09/09.6591/2021,100.8629,282.3195,343.3404,1.000904,5.468406,2000,8.0,4.0
# From MPEC 2022-L66
C/2021 K3 (Catalina),h,02/03.9410/2022,134.7777,114.5824,182.0523,1.004474,5.231537,2000,10.0,4.0
# From MPEC 2021-W31
